{
  "signature": {
    "version": "1.3",
    "source": "NASA/JPL Small-Body Database (SBDB) API"
  },
  "orbit": {
    "n_obs_used": 176,
    "not_valid_before": null,
    "cov_epoch": "2459649.5",
    "source": "JPL",
    "data_arc": null,
    "comment": null,
    "sb_used": "SB441-N16",
    "two_body": null,
    "not_valid_after": "2022-Mar-11.892",
    "moid": "2.48e-05",
    "producer": "Davide Farnocchia",
    "epoch": "2459649.5",
    "t_jup": "2.894",
    "first_obs": "2022-03-11",
    "orbit_id": "11",
    "rms": "0.27",
    "soln_date": "2022-04-14 09:21:55",
    "equinox": "J2000",
    "pe_used": "DE441",
    "last_obs": "2022-03-11",
    "moid_jup": "0.661",
    "elements": [
      {
        "label": "e",
        "value": "0.686",
        "name": "e",
        "units": null,
        "title": "eccentricity",
        "sigma": "0.00013"
      },
      {
        "name": "a",
        "units": "au",
        "value": "2.83",
        "title": "semi-major axis",
        "sigma": "0.0011",
        "label": "a"
      },
      {
        "value": "0.888",
        "name": "q",
        "units": "au",
        "sigma": "1.3e-05",
        "title": "perihelion distance",
        "label": "q"
      },
      {
        "label": "i",
        "value": "10.4",
        "name": "i",
        "units": "deg",
        "title": "inclination; angle with respect to x-y ecliptic plane",
        "sigma": "0.0015"
      },
      {
        "sigma": "6e-06",
        "title": "longitude of the ascending node",
        "value": "351",
        "name": "om",
        "units": "deg",
        "label": "node"
      },
      {
        "label": "peri",
        "units": "deg",
        "name": "w",
        "value": "222",
        "title": "argument of perihelion",
        "sigma": "0.00023"
      },
      {
        "label": "M",
        "value": "354",
        "units": "deg",
        "name": "ma",
        "title": "mean anomaly",
        "sigma": "0.0041"
      },
      {
        "label": "tp",
        "sigma": "0.0014",
        "title": "time of perihelion passage",
        "units": "TDB",
        "name": "tp",
        "value": "2459680.338"
      },
      {
        "label": "period",
        "units": "d",
        "name": "per",
        "value": "1740",
        "sigma": "1",
        "title": "sidereal orbital period"
      },
      {
        "label": "n",
        "sigma": "0.00012",
        "title": "mean motion",
        "value": "0.207",
        "units": "deg/d",
        "name": "n"
      },
      {
        "value": "4.77",
        "units": "au",
        "name": "ad",
        "title": "aphelion distance",
        "sigma": "0.0019",
        "label": "Q"
      }
    ],
    "condition_code": "6",
    "model_pars": [],
    "n_dop_obs_used": null,
    "n_del_obs_used": null
  },
  "object": {
    "fullname": "(2022 EB5)",
    "prefix": null,
    "spkid": "54254967",
    "orbit_id": "11",
    "pha": false,
    "des": "2022 EB5",
    "kind": "au",
    "orbit_class": {
      "name": "Apollo",
      "code": "APO"
    },
    "neo": true
  },
  "phys_par": [
    {
      "ref": "MPO691298",
      "notes": "autocmod 3.0a",
      "value": "31.33",
      "units": null,
      "name": "H",
      "desc": "absolute magnitude (magnitude at 1 au from Sun and observer)",
      "sigma": ".35108",
      "title": "absolute magnitude"
    }
  ]
}